{
  "type": "FeatureCollection",
  "features": [
    {
      "type": "Feature",
      "properties": {
        "norad_id": 2807,
        "name": "OPS 7218 (TRANSIT 16)",
        "group": "nnss",
        "lat": 71.1153891577388,
        "lon": 172.85300038502928,
        "alt_km": 1046.6846887062766,
        "timestamp": "2025-12-18T23:35:49.328630+00:00",
        "meta_object_name": "OPS 7218 (TRANSIT 16)",
        "meta_object_id": "1967-048A",
        "meta_epoch": "2025-12-18T13:01:09.019200",
        "meta_mean_motion": 13.50723435,
        "meta_eccentricity": 0.00221223,
        "meta_inclination": 89.6731,
        "meta_ra_of_asc_node": 353.8238,
        "meta_arg_of_pericenter": 98.56,
        "meta_mean_anomaly": 28.3474,
        "meta_ephemeris_type": 0,
        "meta_classification_type": "U",
        "meta_norad_cat_id": 2807,
        "meta_element_set_no": 999,
        "meta_rev_at_epoch": 88354,
        "meta_bstar": 0.00016415481,
        "meta_mean_motion_dot": 1.16e-06,
        "meta_mean_motion_ddot": 0,
        "tle_line1": "1 02807U 67048A   25352.54246550  .00000116  00000+0  16415-3 0  9997",
        "tle_line2": "2 02807  89.6731 353.8238 0022122  98.5600  28.3474 13.50723435883541"
      },
      "geometry": {
        "type": "Point",
        "coordinates": [
          172.85300038502928,
          71.1153891577388
        ]
      }
    },
    {
      "type": "Feature",
      "properties": {
        "norad_id": 2965,
        "name": "OPS 4947 (TRANSIT 17)",
        "group": "nnss",
        "lat": -54.84183934606942,
        "lon": -154.97356611399138,
        "alt_km": 1033.8703691786677,
        "timestamp": "2025-12-18T23:35:49.328652+00:00",
        "meta_object_name": "OPS 4947 (TRANSIT 17)",
        "meta_object_id": "1967-092A",
        "meta_epoch": "2025-12-18T14:24:36.470304",
        "meta_mean_motion": 13.53455032,
        "meta_eccentricity": 0.00465743,
        "meta_inclination": 89.2491,
        "meta_ra_of_asc_node": 23.9887,
        "meta_arg_of_pericenter": 217.0277,
        "meta_mean_anomaly": 313.5799,
        "meta_ephemeris_type": 0,
        "meta_classification_type": "U",
        "meta_norad_cat_id": 2965,
        "meta_element_set_no": 999,
        "meta_rev_at_epoch": 87176,
        "meta_bstar": 0.00020797223,
        "meta_mean_motion_dot": 1.52e-06,
        "meta_mean_motion_ddot": 0,
        "tle_line1": "1 02965U 67092A   25352.60042211  .00000152  00000+0  20797-3 0  9994",
        "tle_line2": "2 02965  89.2491  23.9887 0046574 217.0277 313.5799 13.53455032871763"
      },
      "geometry": {
        "type": "Point",
        "coordinates": [
          -154.97356611399138,
          -54.84183934606942
        ]
      }
    },
    {
      "type": "Feature",
      "properties": {
        "norad_id": 3133,
        "name": "OPS 7034 (TRANSIT 18)",
        "group": "nnss",
        "lat": -18.859795957189846,
        "lon": -86.33380739011695,
        "alt_km": 1126.0997348891915,
        "timestamp": "2025-12-18T23:35:49.328666+00:00",
        "meta_object_name": "OPS 7034 (TRANSIT 18)",
        "meta_object_id": "1968-012A",
        "meta_epoch": "2025-12-18T13:52:52.694688",
        "meta_mean_motion": 13.51567011,
        "meta_eccentricity": 0.0074419,
        "meta_inclination": 90.0282,
        "meta_ra_of_asc_node": 273.6554,
        "meta_arg_of_pericenter": 152.2844,
        "meta_mean_anomaly": 20.5729,
        "meta_ephemeris_type": 0,
        "meta_classification_type": "U",
        "meta_norad_cat_id": 3133,
        "meta_element_set_no": 999,
        "meta_rev_at_epoch": 56997,
        "meta_bstar": 0.00013973031,
        "meta_mean_motion_dot": 1.02e-06,
        "meta_mean_motion_ddot": 0,
        "tle_line1": "1 03133U 68012A   25352.57838767  .00000102  00000+0  13973-3 0  9993",
        "tle_line2": "2 03133  90.0282 273.6554 0074419 152.2844  20.5729 13.51567011569977"
      },
      "geometry": {
        "type": "Point",
        "coordinates": [
          -86.33380739011695,
          -18.859795957189846
        ]
      }
    },
    {
      "type": "Feature",
      "properties": {
        "norad_id": 4507,
        "name": "NNSS 19 (TRANSIT 19)",
        "group": "nnss",
        "lat": -51.788793550727874,
        "lon": -125.45520159579205,
        "alt_km": 967.6447689462866,
        "timestamp": "2025-12-18T23:35:49.328680+00:00",
        "meta_object_name": "NNSS 19 (TRANSIT 19)",
        "meta_object_id": "1970-067A",
        "meta_epoch": "2025-12-18T14:57:46.786752",
        "meta_mean_motion": 13.51316258,
        "meta_eccentricity": 0.01702806,
        "meta_inclination": 90.0052,
        "meta_ra_of_asc_node": 234.538,
        "meta_arg_of_pericenter": 276.1673,
        "meta_mean_anomaly": 82.0103,
        "meta_ephemeris_type": 0,
        "meta_classification_type": "U",
        "meta_norad_cat_id": 4507,
        "meta_element_set_no": 999,
        "meta_rev_at_epoch": 72301,
        "meta_bstar": 0.00013190051,
        "meta_mean_motion_dot": 1.01e-06,
        "meta_mean_motion_ddot": 0,
        "tle_line1": "1 04507U 70067A   25352.62345818  .00000101  00000+0  13190-3 0  9998",
        "tle_line2": "2 04507  90.0052 234.5380 0170280 276.1673  82.0103 13.51316258723011"
      },
      "geometry": {
        "type": "Point",
        "coordinates": [
          -125.45520159579205,
          -51.788793550727874
        ]
      }
    },
    {
      "type": "Feature",
      "properties": {
        "norad_id": 6909,
        "name": "NNSS 20 (TRANSIT 20)",
        "group": "nnss",
        "lat": 67.04767481487178,
        "lon": 74.6208155489238,
        "alt_km": 917.5428722126553,
        "timestamp": "2025-12-18T23:35:49.328691+00:00",
        "meta_object_name": "NNSS 20 (TRANSIT 20)",
        "meta_object_id": "1973-081A",
        "meta_epoch": "2025-12-18T10:48:20.038752",
        "meta_mean_motion": 13.71437064,
        "meta_eccentricity": 0.01565057,
        "meta_inclination": 89.8562,
        "meta_ra_of_asc_node": 254.9686,
        "meta_arg_of_pericenter": 61.4099,
        "meta_mean_anomaly": 300.271,
        "meta_ephemeris_type": 0,
        "meta_classification_type": "U",
        "meta_norad_cat_id": 6909,
        "meta_element_set_no": 999,
        "meta_rev_at_epoch": 80439,
        "meta_bstar": 0.00023197604,
        "meta_mean_motion_dot": 2.39e-06,
        "meta_mean_motion_ddot": 0,
        "tle_line1": "1 06909U 73081A   25352.45023193  .00000239  00000+0  23198-3 0  9996",
        "tle_line2": "2 06909  89.8562 254.9686 0156505  61.4099 300.2710 13.71437064804398"
      },
      "geometry": {
        "type": "Point",
        "coordinates": [
          74.6208155489238,
          67.04767481487178
        ]
      }
    },
    {
      "type": "Feature",
      "properties": {
        "norad_id": 10457,
        "name": "TRANSAT",
        "group": "nnss",
        "lat": -79.31377750734104,
        "lon": -99.7577160005218,
        "alt_km": 1082.7881849641872,
        "timestamp": "2025-12-18T23:35:49.328702+00:00",
        "meta_object_name": "TRANSAT",
        "meta_object_id": "1977-106A",
        "meta_epoch": "2025-12-18T15:47:30.310080",
        "meta_mean_motion": 13.48944451,
        "meta_eccentricity": 0.00259572,
        "meta_inclination": 89.6481,
        "meta_ra_of_asc_node": 78.3875,
        "meta_arg_of_pericenter": 172.4987,
        "meta_mean_anomaly": 308.1044,
        "meta_ephemeris_type": 0,
        "meta_classification_type": "U",
        "meta_norad_cat_id": 10457,
        "meta_element_set_no": 999,
        "meta_rev_at_epoch": 36823,
        "meta_bstar": 9.8816939e-05,
        "meta_mean_motion_dot": 7.2e-07,
        "meta_mean_motion_ddot": 0,
        "tle_line1": "1 10457U 77106A   25352.65798970  .00000072  00000+0  98817-4 0  9991",
        "tle_line2": "2 10457  89.6481  78.3875 0025957 172.4987 308.1044 13.48944451368234"
      },
      "geometry": {
        "type": "Point",
        "coordinates": [
          -99.7577160005218,
          -79.31377750734104
        ]
      }
    },
    {
      "type": "Feature",
      "properties": {
        "norad_id": 12458,
        "name": "NOVA 1",
        "group": "nnss",
        "lat": -55.7241789215209,
        "lon": 91.08086567674052,
        "alt_km": 1189.0595386594568,
        "timestamp": "2025-12-18T23:35:49.328713+00:00",
        "meta_object_name": "NOVA 1",
        "meta_object_id": "1981-044A",
        "meta_epoch": "2025-12-18T13:02:49.615584",
        "meta_mean_motion": 13.23278951,
        "meta_eccentricity": 0.0015892,
        "meta_inclination": 89.8528,
        "meta_ra_of_asc_node": 91.3032,
        "meta_arg_of_pericenter": 89.7595,
        "meta_mean_anomaly": 281.8313,
        "meta_ephemeris_type": 0,
        "meta_classification_type": "U",
        "meta_norad_cat_id": 12458,
        "meta_element_set_no": 999,
        "meta_rev_at_epoch": 15263,
        "meta_bstar": 0.00010892509,
        "meta_mean_motion_dot": 5.5e-07,
        "meta_mean_motion_ddot": 0,
        "tle_line1": "1 12458U 81044A   25352.54362981  .00000055  00000+0  10893-3 0  9995",
        "tle_line2": "2 12458  89.8528  91.3032 0015892  89.7595 281.8313 13.23278951152632"
      },
      "geometry": {
        "type": "Point",
        "coordinates": [
          91.08086567674052,
          -55.7241789215209
        ]
      }
    }
  ]
}